0 COSMOS 1818 COOLANT
1 36132U 87011K   13283.56610395  .00000316  00000-0  15384-3 0  1901
2 36132 065.0095 258.2285 0021774 257.4457 102.4200 14.32262271244929
0 COSMOS 1818 COOLANT
1 36132U 87011K   13287.26679792  .00000359  00000-0  16939-3 0  1913
2 36132 065.0085 247.8529 0021609 258.1569 101.7199 14.32266580245457
0 COSMOS 1818 COOLANT
1 36132U 87011K   13289.50117239  .00000395  00000-0  18300-3 0  1920
2 36132 065.0092 241.5901 0021051 255.9157 103.9775 14.32269666245776
0 COSMOS 1818 COOLANT
1 36132U 87011K   13293.20183811  .00000468  00000-0  20969-3 0  1937
2 36132 065.0091 231.2067 0021884 261.0642 098.7965 14.32275398246306
0 COSMOS 1818 COOLANT
1 36132U 87011K   13295.43619998  .00000510  00000-0  22515-3 0  1942
2 36132 065.0089 224.9421 0021875 260.4999 099.3793 14.32279044246627
